[{"OBJECT_NAME":"STARLINK-33918","OBJECT_ID":"2025-091X","EPOCH":"2026-03-09T23:23:49.805664","MEAN_MOTION":15.27587917,"ECCENTRICITY":9.019e-5,"INCLINATION":43.0014,"RA_OF_ASC_NODE":51.1021,"ARG_OF_PERICENTER":261.6685,"MEAN_ANOMALY":98.4065,"EPHEMERIS_TYPE":0,"CLASSIFICATION_TYPE":"U","NORAD_CAT_ID":63796,"ELEMENT_SET_NO":999,"REV_AT_EPOCH":4899,"BSTAR":0.0012384687,"MEAN_MOTION_DOT":0.00033983,"MEAN_MOTION_DDOT":0},{"OBJECT_NAME":"KUIPER-00184","OBJECT_ID":"2025-301G","EPOCH":"2026-03-09T22:00:01.999584","MEAN_MOTION":15.32782365,"ECCENTRICITY":0.00116958,"INCLINATION":51.8667,"RA_OF_ASC_NODE":64.5953,"ARG_OF_PERICENTER":53.2996,"MEAN_ANOMALY":333.7065,"EPHEMERIS_TYPE":0,"CLASSIFICATION_TYPE":"U","NORAD_CAT_ID":67139,"ELEMENT_SET_NO":999,"REV_AT_EPOCH":554,"BSTAR":-0.036844053,"MEAN_MOTION_DOT":-0.01088594,"MEAN_MOTION_DDOT":0}]
